{
  "type": "FeatureCollection",
  "features": [
    {
      "type": "Feature",
      "properties": {
        "norad_id": 25590,
        "name": "COSMOS 2361",
        "group": "musson",
        "lat": -60.753987749488225,
        "lon": 169.1392878693315,
        "alt_km": 973.0465406462426,
        "timestamp": "2025-12-23T05:02:12.300484+00:00",
        "meta_object_name": "COSMOS 2361",
        "meta_object_id": "1998-076A",
        "meta_epoch": "2025-12-22T16:27:59.472000",
        "meta_mean_motion": 13.73218601,
        "meta_eccentricity": 0.00302323,
        "meta_inclination": 82.9343,
        "meta_ra_of_asc_node": 336.7295,
        "meta_arg_of_pericenter": 236.799,
        "meta_mean_anomaly": 296.8573,
        "meta_ephemeris_type": 0,
        "meta_classification_type": "U",
        "meta_norad_cat_id": 25590,
        "meta_element_set_no": 999,
        "meta_rev_at_epoch": 35247,
        "meta_bstar": 4.0704622e-05,
        "meta_mean_motion_dot": 5.3e-07,
        "meta_mean_motion_ddot": 0,
        "tle_line1": "1 25590U 98076A   25356.68610500  .00000053  00000+0  40705-4 0  9995",
        "tle_line2": "2 25590  82.9343 336.7295 0030232 236.7990 296.8573 13.73218601352476"
      },
      "geometry": {
        "type": "Point",
        "coordinates": [
          169.1392878693315,
          -60.753987749488225
        ]
      }
    },
    {
      "type": "Feature",
      "properties": {
        "norad_id": 26818,
        "name": "COSMOS 2378",
        "group": "musson",
        "lat": -11.107580025954183,
        "lon": -9.435660975291706,
        "alt_km": 1013.1071812822629,
        "timestamp": "2025-12-23T05:02:12.300505+00:00",
        "meta_object_name": "COSMOS 2378",
        "meta_object_id": "2001-023A",
        "meta_epoch": "2025-12-22T10:24:27.014400",
        "meta_mean_motion": 13.74142737,
        "meta_eccentricity": 0.00330042,
        "meta_inclination": 82.927,
        "meta_ra_of_asc_node": 352.5364,
        "meta_arg_of_pericenter": 177.6756,
        "meta_mean_anomaly": 293.4774,
        "meta_ephemeris_type": 0,
        "meta_classification_type": "U",
        "meta_norad_cat_id": 26818,
        "meta_element_set_no": 999,
        "meta_rev_at_epoch": 23056,
        "meta_bstar": 2.5768837e-05,
        "meta_mean_motion_dot": 4e-07,
        "meta_mean_motion_ddot": 0,
        "tle_line1": "1 26818U 01023A   25356.43364600  .00000040  00000+0  25769-4 0  9994",
        "tle_line2": "2 26818  82.9270 352.5364 0033004 177.6756 293.4774 13.74142737230563"
      },
      "geometry": {
        "type": "Point",
        "coordinates": [
          -9.435660975291706,
          -11.107580025954183
        ]
      }
    },
    {
      "type": "Feature",
      "properties": {
        "norad_id": 27436,
        "name": "COSMOS 2389",
        "group": "musson",
        "lat": -53.19092631991142,
        "lon": 128.7507590620936,
        "alt_km": 1020.3886397663082,
        "timestamp": "2025-12-23T05:02:12.300518+00:00",
        "meta_object_name": "COSMOS 2389",
        "meta_object_id": "2002-026A",
        "meta_epoch": "2025-12-22T22:59:19.182624",
        "meta_mean_motion": 13.75155651,
        "meta_eccentricity": 0.00471965,
        "meta_inclination": 82.9511,
        "meta_ra_of_asc_node": 299.4206,
        "meta_arg_of_pericenter": 32.8727,
        "meta_mean_anomaly": 34.1755,
        "meta_ephemeris_type": 0,
        "meta_classification_type": "U",
        "meta_norad_cat_id": 27436,
        "meta_element_set_no": 999,
        "meta_rev_at_epoch": 18289,
        "meta_bstar": 4.7958183e-05,
        "meta_mean_motion_dot": 6.2e-07,
        "meta_mean_motion_ddot": 0,
        "tle_line1": "1 27436U 02026A   25356.95786091  .00000062  00000+0  47958-4 0  9992",
        "tle_line2": "2 27436  82.9511 299.4206 0047196  32.8727  34.1755 13.75155651182890"
      },
      "geometry": {
        "type": "Point",
        "coordinates": [
          128.7507590620936,
          -53.19092631991142
        ]
      }
    },
    {
      "type": "Feature",
      "properties": {
        "norad_id": 27818,
        "name": "COSMOS 2398",
        "group": "musson",
        "lat": 79.58624800435969,
        "lon": -52.67976183046586,
        "alt_km": 959.5625649784424,
        "timestamp": "2025-12-23T05:02:12.300530+00:00",
        "meta_object_name": "COSMOS 2398",
        "meta_object_id": "2003-023A",
        "meta_epoch": "2025-12-22T20:12:13.116672",
        "meta_mean_motion": 13.72386809,
        "meta_eccentricity": 0.00327146,
        "meta_inclination": 82.9483,
        "meta_ra_of_asc_node": 265.2543,
        "meta_arg_of_pericenter": 84.891,
        "meta_mean_anomaly": 340.111,
        "meta_ephemeris_type": 0,
        "meta_classification_type": "U",
        "meta_norad_cat_id": 27818,
        "meta_element_set_no": 999,
        "meta_rev_at_epoch": 12955,
        "meta_bstar": 7.3840228e-05,
        "meta_mean_motion_dot": 8.3e-07,
        "meta_mean_motion_ddot": 0,
        "tle_line1": "1 27818U 03023A   25356.84181848  .00000083  00000+0  73840-4 0  9993",
        "tle_line2": "2 27818  82.9483 265.2543 0032714  84.8910 340.1110 13.72386809129555"
      },
      "geometry": {
        "type": "Point",
        "coordinates": [
          -52.67976183046586,
          79.58624800435969
        ]
      }
    },
    {
      "type": "Feature",
      "properties": {
        "norad_id": 28380,
        "name": "COSMOS 2407",
        "group": "musson",
        "lat": 65.2167681990813,
        "lon": -139.33515663877114,
        "alt_km": 948.1147972081944,
        "timestamp": "2025-12-23T05:02:12.300540+00:00",
        "meta_object_name": "COSMOS 2407",
        "meta_object_id": "2004-028A",
        "meta_epoch": "2025-12-22T13:18:15.732000",
        "meta_mean_motion": 13.76314742,
        "meta_eccentricity": 0.00398707,
        "meta_inclination": 82.9596,
        "meta_ra_of_asc_node": 205.6259,
        "meta_arg_of_pericenter": 28.0566,
        "meta_mean_anomaly": 31.7987,
        "meta_ephemeris_type": 0,
        "meta_classification_type": "U",
        "meta_norad_cat_id": 28380,
        "meta_element_set_no": 999,
        "meta_rev_at_epoch": 7558,
        "meta_bstar": 4.1101222e-05,
        "meta_mean_motion_dot": 5.6e-07,
        "meta_mean_motion_ddot": 0,
        "tle_line1": "1 28380U 04028A   25356.55434875  .00000056  00000+0  41101-4 0  9998",
        "tle_line2": "2 28380  82.9596 205.6259 0039870  28.0566  31.7987 13.76314742 75583"
      },
      "geometry": {
        "type": "Point",
        "coordinates": [
          -139.33515663877114,
          65.2167681990813
        ]
      }
    },
    {
      "type": "Feature",
      "properties": {
        "norad_id": 28521,
        "name": "COSMOS 2414",
        "group": "musson",
        "lat": 44.69857184371529,
        "lon": -176.22271618799917,
        "alt_km": 919.4478488249633,
        "timestamp": "2025-12-23T05:02:12.300551+00:00",
        "meta_object_name": "COSMOS 2414",
        "meta_object_id": "2005-002A",
        "meta_epoch": "2025-12-22T20:10:08.449248",
        "meta_mean_motion": 13.87904286,
        "meta_eccentricity": 0.00413602,
        "meta_inclination": 82.9488,
        "meta_ra_of_asc_node": 177.0219,
        "meta_arg_of_pericenter": 111.6486,
        "meta_mean_anomaly": 248.9091,
        "meta_ephemeris_type": 0,
        "meta_classification_type": "U",
        "meta_norad_cat_id": 28521,
        "meta_element_set_no": 999,
        "meta_rev_at_epoch": 5935,
        "meta_bstar": 4.2903828e-05,
        "meta_mean_motion_dot": 6.8e-07,
        "meta_mean_motion_ddot": 0,
        "tle_line1": "1 28521U 05002A   25356.84037557  .00000068  00000+0  42904-4 0  9991",
        "tle_line2": "2 28521  82.9488 177.0219 0041360 111.6486 248.9091 13.87904286 59350"
      },
      "geometry": {
        "type": "Point",
        "coordinates": [
          -176.22271618799917,
          44.69857184371529
        ]
      }
    },
    {
      "type": "Feature",
      "properties": {
        "norad_id": 32052,
        "name": "COSMOS 2429",
        "group": "musson",
        "lat": 59.09897687093009,
        "lon": -12.530877791156312,
        "alt_km": 957.3729762060375,
        "timestamp": "2025-12-23T05:02:12.300561+00:00",
        "meta_object_name": "COSMOS 2429",
        "meta_object_id": "2007-038A",
        "meta_epoch": "2025-12-22T16:31:30.511776",
        "meta_mean_motion": 13.75150343,
        "meta_eccentricity": 0.00386621,
        "meta_inclination": 82.9807,
        "meta_ra_of_asc_node": 335.9742,
        "meta_arg_of_pericenter": 10.5262,
        "meta_mean_anomaly": 349.6695,
        "meta_ephemeris_type": 0,
        "meta_classification_type": "U",
        "meta_norad_cat_id": 32052,
        "meta_element_set_no": 999,
        "meta_rev_at_epoch": 91739,
        "meta_bstar": 3.7979129e-05,
        "meta_mean_motion_dot": 5.2e-07,
        "meta_mean_motion_ddot": 0,
        "tle_line1": "1 32052U 07038A   25356.68854759  .00000052  00000+0  37979-4 0  9998",
        "tle_line2": "2 32052  82.9807 335.9742 0038662  10.5262 349.6695 13.75150343917395"
      },
      "geometry": {
        "type": "Point",
        "coordinates": [
          -12.530877791156312,
          59.09897687093009
        ]
      }
    },
    {
      "type": "Feature",
      "properties": {
        "norad_id": 35635,
        "name": "COSMOS 2454",
        "group": "musson",
        "lat": 7.556117746632145,
        "lon": -20.231978676032394,
        "alt_km": 939.5428550651704,
        "timestamp": "2025-12-23T05:02:12.300571+00:00",
        "meta_object_name": "COSMOS 2454",
        "meta_object_id": "2009-039A",
        "meta_epoch": "2025-12-22T21:49:44.368320",
        "meta_mean_motion": 13.89929927,
        "meta_eccentricity": 0.00201205,
        "meta_inclination": 82.9556,
        "meta_ra_of_asc_node": 160.9355,
        "meta_arg_of_pericenter": 46.3695,
        "meta_mean_anomaly": 63.8353,
        "meta_ephemeris_type": 0,
        "meta_classification_type": "U",
        "meta_norad_cat_id": 35635,
        "meta_element_set_no": 999,
        "meta_rev_at_epoch": 83291,
        "meta_bstar": 5.0864807e-05,
        "meta_mean_motion_dot": 7.9e-07,
        "meta_mean_motion_ddot": 0,
        "tle_line1": "1 35635U 09039A   25356.90954130  .00000079  00000+0  50865-4 0  9998",
        "tle_line2": "2 35635  82.9556 160.9355 0020120  46.3695  63.8353 13.89929927832916"
      },
      "geometry": {
        "type": "Point",
        "coordinates": [
          -20.231978676032394,
          7.556117746632145
        ]
      }
    },
    {
      "type": "Feature",
      "properties": {
        "norad_id": 36519,
        "name": "COSMOS 2463",
        "group": "musson",
        "lat": -63.305851993711094,
        "lon": -146.75622340137645,
        "alt_km": 975.9601885640132,
        "timestamp": "2025-12-23T05:02:12.300582+00:00",
        "meta_object_name": "COSMOS 2463",
        "meta_object_id": "2010-017A",
        "meta_epoch": "2025-12-22T14:24:24.038208",
        "meta_mean_motion": 13.71649971,
        "meta_eccentricity": 0.00347728,
        "meta_inclination": 82.9604,
        "meta_ra_of_asc_node": 19.4662,
        "meta_arg_of_pericenter": 259.7039,
        "meta_mean_anomaly": 216.1133,
        "meta_ephemeris_type": 0,
        "meta_classification_type": "U",
        "meta_norad_cat_id": 36519,
        "meta_element_set_no": 999,
        "meta_rev_at_epoch": 78372,
        "meta_bstar": 3.4874667e-05,
        "meta_mean_motion_dot": 4.6e-07,
        "meta_mean_motion_ddot": 0,
        "tle_line1": "1 36519U 10017A   25356.60027822  .00000046  00000+0  34875-4 0  9991",
        "tle_line2": "2 36519  82.9604  19.4662 0034772 259.7039 216.1133 13.71649971783723"
      },
      "geometry": {
        "type": "Point",
        "coordinates": [
          -146.75622340137645,
          -63.305851993711094
        ]
      }
    }
  ]
}